{
  "norad_id": 67421,
  "name": "STARLINK-36431",
  "history": [
    {
      "epoch": "2026-03-28T14:12:32.771808",
      "apogee_km": 484.40992750787336,
      "perigee_km": 481.5364945514948,
      "latitude_deg": 38.684258058343254,
      "longitude_deg": -101.06358687998727,
      "semi_major_axis_km": 6861.110211029684,
      "eccentricity": 0.0002094,
      "inclination_deg": 43.0012,
      "raan_deg": 131.5556,
      "arg_perigee_deg": 272.3108,
      "mean_anomaly_deg": 87.7504,
      "mean_motion_rev_day": 15.27605343
    }
  ]
}