{"fetched_at":"2026-03-29T16:36:15Z","count":15609,"tles":[{"name":"STARLINK-36431","line1":"1 67421U 26005T   26087.59204597  .00028560  00000+0  10425-2 0  9991","line2":"2 67421  43.0012 131.5556 0002094 272.3108  87.7504 15.27605343 11588","category":"Starlink"}]}